STARLINK-2405
1 17919C 21021BM  21326.15575434  .00001863  00000-0  12480-3 0  3264
2 17919  53.0525 123.0297 0001485  92.3028 177.5879 15.06397318    16
